IRIDIUM 155             
1 43573U 18061E   26004.29461157 -.00000077  00000+0 -34675-4 0  9999
2 43573  86.3990 125.2152 0002056  96.4776 263.6654 14.34218373389861
IRIDIUM 154             
1 43574U 18061F   26004.27558434  .00000023  00000+0  98392-6 0  9990
2 43574  86.3994 125.3496 0002089  93.4307 266.7128 14.34217605389914
IRIDIUM 163             
1 43575U 18061G   26004.25655598  .00000057  00000+0  13459-4 0  9994
2 43575  86.3992 125.2770 0002007 101.4485 258.6936 14.34217889389881
IRIDIUM 156             
1 43576U 18061H   26004.30095516  .00000011  00000+0 -32563-5 0  9998
2 43576  86.3993 125.2657 0002157  97.0013 263.1428 14.34217452389883
IRIDIUM 164             
1 43577U 18061J   26004.21215846 -.00000026  00000+0 -16179-4 0  9990
2 43577  86.3993 125.3404 0001915  92.2531 267.8884 14.34217396389916
IRIDIUM 159             
1 43578U 18061K   26004.31998166  .00000051  00000+0  11116-4 0  9997
2 43578  86.3989 125.2367 0001862  95.1368 265.0040 14.34217905389897
IRIDIUM 180             
1 43922U 19002A   26004.24970788  .00000149  00000+0  46106-4 0  9993
2 43922  86.3943  62.1283 0002033  96.1047 264.0381 14.34216672365499
IRIDIUM 176             
1 43923U 19002B   26004.22089397  .00001406  00000+0  21913-3 0  9994
2 43923  86.6067  62.1078 0002340  97.2265 262.9219 14.72247900375125
IRIDIUM 168             
1 43924U 19002C   26004.24336423  .00000435  00000+0  14840-3 0  9994
2 43924  86.3944  62.2038 0002179  96.5495 263.5949 14.34220356365479
IRIDIUM 173             
1 43925U 19002D   26004.23068619  .00000407  00000+0  13831-3 0  9991
2 43925  86.3946  62.1046 0002269  99.2851 260.8601 14.34219584365450
IRIDIUM 169             
1 43926U 19002E   26004.30929347  .00000576  00000+0  18182-3 0  9995
2 43926  86.4220  93.7283 0002999 109.1704 250.9819 14.38609049366666
IRIDIUM 172             
1 43927U 19002F   26004.22433912  .00000030  00000+0  37635-5 0  9996
2 43927  86.3943  62.1145 0001910  97.1065 263.0348 14.34217698365463
IRIDIUM 175             
1 43928U 19002G   26004.28415907  .00000671  00000+0  10248-3 0  9997
2 43928  86.1496   3.2124 0002962  69.7026 290.4509 14.72228570375128
IRIDIUM 171             
1 43929U 19002H   26004.20531253  .00000056  00000+0  12915-4 0  9994
2 43929  86.3953  62.4110 0002417  91.3982 268.7491 14.34217908365452
IRIDIUM 170             
1 43930U 19002J   26004.22705726  .00001205  00000+0  18729-3 0  9991
2 43930  86.6067  62.1087 0002359  88.4110 271.7377 14.72242073375134
IRIDIUM 167             
1 43931U 19002K   26004.19896973  .00000090  00000+0  24960-4 0  9999
2 43931  86.3944  62.1463 0002664  92.7485 267.4016 14.34218232365450
IRIDIUM 181             
1 56726U 23068S   26004.28109075  .00000624  00000+0  17943-3 0  9997
2 56726  86.4530 125.3140 0001761  82.9736 277.1665 14.43312367138796
IRIDIUM 177             
1 56727U 23068T   26004.18587665  .00001755  00000+0  22754-3 0  9994
2 56727  86.1943  46.6660 0002243  90.0730 270.0748 14.80224504142104
IRIDIUM 174             
1 56728U 23068U   26004.21470623  .00001479  00000+0  23065-3 0  9993
2 56728  86.6074  62.2449 0002169  92.0529 268.0936 14.72250468141899
IRIDIUM 178             
1 56729U 23068V   26004.31017857  .00002362  00000+0  30758-3 0  9990
2 56729  86.6538  93.8699 0002523  85.1140 275.0369 14.80206977142128
IRIDIUM 179             
1 56730U 23068W   26004.30481766  .00002379  00000+0  30959-3 0  9996
2 56730  86.6790 102.3653 0002502  93.4134 266.7374 14.80236119142122
